{
  "norad_id": 37392,
  "name": "INTELSAT 28 (IS-28)",
  "history": [
    {
      "epoch": "2026-03-28T21:28:49.575936Z",
      "apogee_km": 35805.998756057976,
      "perigee_km": 35767.68344046008,
      "latitude_deg": 0.8560453608525743,
      "longitude_deg": -31.658802764124815,
      "height_km": 35792.12908232772,
      "semi_major_axis_km": 42164.97809825903,
      "eccentricity": 0.00045435,
      "inclination_deg": 1.5992,
      "raan_deg": 83.6001,
      "arg_perigee_deg": 285.458,
      "mean_anomaly_deg": 107.7379,
      "mean_motion_rev_day": 1.00270907
    },
    {
      "epoch": "2026-03-29T04:19:29.887392Z",
      "apogee_km": 35805.99325375117,
      "perigee_km": 35767.70744523784,
      "latitude_deg": 1.1229103933147035,
      "longitude_deg": -31.71365351939802,
      "height_km": 35802.811309079065,
      "semi_major_axis_km": 42164.987349494506,
      "eccentricity": 0.000454,
      "inclination_deg": 1.6,
      "raan_deg": 83.5959,
      "arg_perigee_deg": 285.9638,
      "mean_anomaly_deg": 210.1848,
      "mean_motion_rev_day": 1.00270874
    },
    {
      "epoch": "2026-03-30T00:51:40.601376Z",
      "apogee_km": 35806.138782730806,
      "perigee_km": 35767.63368351432,
      "latitude_deg": 1.5889937583207085,
      "longitude_deg": -31.685248057197445,
      "height_km": 35804.10153256926,
      "semi_major_axis_km": 42165.02323312257,
      "eccentricity": 0.0004566,
      "inclination_deg": 1.6023,
      "raan_deg": 83.5855,
      "arg_perigee_deg": 287.3345,
      "mean_anomaly_deg": 157.7097,
      "mean_motion_rev_day": 1.00270746
    },
    {
      "epoch": "2026-03-30T06:26:57.922944Z",
      "apogee_km": 35806.13468469287,
      "perigee_km": 35767.65740543793,
      "latitude_deg": 0.3271639266353191,
      "longitude_deg": -31.74496690179417,
      "height_km": 35795.579332193054,
      "semi_major_axis_km": 42165.03304506541,
      "eccentricity": 0.00045627,
      "inclination_deg": 1.6029,
      "raan_deg": 83.5827,
      "arg_perigee_deg": 287.7099,
      "mean_anomaly_deg": 241.3882,
      "mean_motion_rev_day": 1.00270711
    },
    {
      "epoch": "2026-03-30T09:53:43.678176Z",
      "apogee_km": 35806.15420097071,
      "perigee_km": 35767.65583100843,
      "latitude_deg": -1.0267383364500655,
      "longitude_deg": -31.763587299523742,
      "height_km": 35778.97513473068,
      "semi_major_axis_km": 42165.04201598957,
      "eccentricity": 0.00045652,
      "inclination_deg": 1.6032,
      "raan_deg": 83.5811,
      "arg_perigee_deg": 288.0017,
      "mean_anomaly_deg": 292.9296,
      "mean_motion_rev_day": 1.00270679
    },
    {
      "epoch": "2026-03-30T19:41:13.475904Z",
      "apogee_km": 35806.26800878059,
      "perigee_km": 35767.57566418988,
      "latitude_deg": 0.20507159188395893,
      "longitude_deg": -31.658913069031847,
      "height_km": 35782.90191894048,
      "semi_major_axis_km": 42165.05883648524,
      "eccentricity": 0.00045882,
      "inclination_deg": 1.6043,
      "raan_deg": 83.576,
      "arg_perigee_deg": 288.6626,
      "mean_anomaly_deg": 79.5482,
      "mean_motion_rev_day": 1.00270619
    },
    {
      "epoch": "2026-04-01T16:10:56.263584Z",
      "apogee_km": 35805.15944037479,
      "perigee_km": 35767.61614749827,
      "latitude_deg": -1.0962633481008242,
      "longitude_deg": -31.67132396086097,
      "height_km": 35768.934216108224,
      "semi_major_axis_km": 42164.524793936536,
      "eccentricity": 0.0004452,
      "inclination_deg": 1.609,
      "raan_deg": 83.551,
      "arg_perigee_deg": 292.5441,
      "mean_anomaly_deg": 24.9563,
      "mean_motion_rev_day": 1.00272524
    },
    {
      "epoch": "2026-04-02T19:33:51.602112Z",
      "apogee_km": 35805.356657464414,
      "perigee_km": 35767.518168386254,
      "latitude_deg": 0.24010799134038802,
      "longitude_deg": -31.657864821394217,
      "height_km": 35780.957989270995,
      "semi_major_axis_km": 42164.574412925336,
      "eccentricity": 0.0004487,
      "inclination_deg": 1.6118,
      "raan_deg": 83.5367,
      "arg_perigee_deg": 294.5232,
      "mean_anomaly_deg": 74.8496,
      "mean_motion_rev_day": 1.00272347
    },
    {
      "epoch": "2026-04-02T21:16:26.763168Z",
      "apogee_km": 35805.37295472404,
      "perigee_km": 35767.50747780074,
      "latitude_deg": 0.9022004703322977,
      "longitude_deg": -31.664003445192105,
      "height_km": 35789.29284150113,
      "semi_major_axis_km": 42164.57721626239,
      "eccentricity": 0.00044902,
      "inclination_deg": 1.612,
      "raan_deg": 83.5362,
      "arg_perigee_deg": 294.67,
      "mean_anomaly_deg": 100.4201,
      "mean_motion_rev_day": 1.00272337
    },
    {
      "epoch": "2026-04-03T19:31:23.691360Z",
      "apogee_km": 35805.50665257809,
      "perigee_km": 35767.46572953511,
      "latitude_deg": 0.2530063735258457,
      "longitude_deg": -31.658603392720504,
      "height_km": 35780.57568190743,
      "semi_major_axis_km": 42164.623191056606,
      "eccentricity": 0.0004511,
      "inclination_deg": 1.6142,
      "raan_deg": 83.5239,
      "arg_perigee_deg": 296.149,
      "mean_anomaly_deg": 73.6061,
      "mean_motion_rev_day": 1.00272173
    },
    {
      "epoch": "2026-04-04T05:19:38.595936Z",
      "apogee_km": 35805.57392136228,
      "perigee_km": 35767.446117648426,
      "latitude_deg": 0.6374854037364716,
      "longitude_deg": -31.72933439331716,
      "height_km": 35800.492166911376,
      "semi_major_axis_km": 42164.647019505355,
      "eccentricity": 0.00045213,
      "inclination_deg": 1.6152,
      "raan_deg": 83.5187,
      "arg_perigee_deg": 296.7697,
      "mean_anomaly_deg": 220.4564,
      "mean_motion_rev_day": 1.00272088
    },
    {
      "epoch": "2026-04-05T05:52:38.879616Z",
      "apogee_km": 35805.713349187776,
      "perigee_km": 35767.42779471245,
      "latitude_deg": 0.3910540618554567,
      "longitude_deg": -31.738096465123007,
      "height_km": 35798.82327632572,
      "semi_major_axis_km": 42164.707571950115,
      "eccentricity": 0.000454,
      "inclination_deg": 1.6176,
      "raan_deg": 83.5048,
      "arg_perigee_deg": 298.2876,
      "mean_anomaly_deg": 228.2127,
      "mean_motion_rev_day": 1.00271872
    },
    {
      "epoch": "2026-04-05T19:26:27.648672Z",
      "apogee_km": 35805.7644316257,
      "perigee_km": 35767.44511430243,
      "latitude_deg": 0.27911209016492006,
      "longitude_deg": -31.660632984823387,
      "height_km": 35779.96212616546,
      "semi_major_axis_km": 42164.741772964066,
      "eccentricity": 0.0004544,
      "inclination_deg": 1.6189,
      "raan_deg": 83.497,
      "arg_perigee_deg": 299.0546,
      "mean_anomaly_deg": 71.4635,
      "mean_motion_rev_day": 1.0027175
    },
    {
      "epoch": "2026-04-06T05:14:38.634144Z",
      "apogee_km": 35805.831410805265,
      "perigee_km": 35767.43364178845,
      "latitude_deg": 0.6163334568088868,
      "longitude_deg": -31.729900138031237,
      "height_km": 35801.15988487186,
      "semi_major_axis_km": 42164.769526296855,
      "eccentricity": 0.00045533,
      "inclination_deg": 1.6199,
      "raan_deg": 83.4915,
      "arg_perigee_deg": 299.5926,
      "mean_anomaly_deg": 218.3798,
      "mean_motion_rev_day": 1.00271651
    },
    {
      "epoch": "2026-04-07T19:21:30.259008Z",
      "apogee_km": 35805.049666553154,
      "perigee_km": 35767.60762106145,
      "latitude_deg": 0.30384733180672263,
      "longitude_deg": -31.65925212825247,
      "height_km": 35779.18163751649,
      "semi_major_axis_km": 42164.4656438073,
      "eccentricity": 0.000444,
      "inclination_deg": 1.6237,
      "raan_deg": 83.4682,
      "arg_perigee_deg": 301.9062,
      "mean_anomaly_deg": 69.3744,
      "mean_motion_rev_day": 1.00272735
    },
    {
      "epoch": "2026-04-08T10:45:35.934048Z",
      "apogee_km": 35805.14553183501,
      "perigee_km": 35767.625010047,
      "latitude_deg": -1.4300790189048866,
      "longitude_deg": -31.753589803749758,
      "height_km": 35776.415112591836,
      "semi_major_axis_km": 42164.52227094101,
      "eccentricity": 0.00044493,
      "inclination_deg": 1.6252,
      "raan_deg": 83.4578,
      "arg_perigee_deg": 302.1224,
      "mean_anomaly_deg": 300.8268,
      "mean_motion_rev_day": 1.00272533
    },
    {
      "epoch": "2026-04-09T17:33:56.050272Z",
      "apogee_km": 35805.16675397576,
      "perigee_km": 35767.85104235589,
      "latitude_deg": -0.39406497621602876,
      "longitude_deg": -31.658889917470308,
      "height_km": 35772.51336638619,
      "semi_major_axis_km": 42164.64589816583,
      "eccentricity": 0.0004425,
      "inclination_deg": 1.6283,
      "raan_deg": 83.4413,
      "arg_perigee_deg": 302.6887,
      "mean_anomaly_deg": 43.6284,
      "mean_motion_rev_day": 1.00272092
    },
    {
      "epoch": "2026-04-09T22:41:59.076960Z",
      "apogee_km": 35805.145482553184,
      "perigee_km": 35767.91492470572,
      "latitude_deg": 1.4429607375374267,
      "longitude_deg": -31.664791440393316,
      "height_km": 35795.44358830178,
      "semi_major_axis_km": 42164.667203629455,
      "eccentricity": 0.00044149,
      "inclination_deg": 1.6288,
      "raan_deg": 83.4384,
      "arg_perigee_deg": 302.7256,
      "mean_anomaly_deg": 120.818,
      "mean_motion_rev_day": 1.00272016
    },
    {
      "epoch": "2026-04-11T17:28:45.360192Z",
      "apogee_km": 35804.43530313069,
      "perigee_km": 35768.12330780842,
      "latitude_deg": -0.37789720600881554,
      "longitude_deg": -31.651106625142212,
      "height_km": 35772.26681605922,
      "semi_major_axis_km": 42164.41630546955,
      "eccentricity": 0.0004306,
      "inclination_deg": 1.6332,
      "raan_deg": 83.4106,
      "arg_perigee_deg": 305.1896,
      "mean_anomaly_deg": 41.8436,
      "mean_motion_rev_day": 1.00272911
    }
  ]
}